start=new Date('2023-02-26T00:00:00.000Z').valueOf();
sats=[{"OBJECT_TYPE":"PAYLOAD","RA_OF_ASC_NODE":"157.7495","BSTAR":"0.00089059000000","EPHEMERIS_TYPE":"0","ECCENTRICITY":"0.00012360","ARG_OF_PERICENTER":"111.6099","SITE":"AFWTR","MEAN_MOTION_DDOT":"0.0000000000000","OBJECT_NAME":"STARLINK-4639","APOAPSIS":"540.599","MEAN_ELEMENT_THEORY":"SGP4","DECAY_DATE":null,"TIME_SYSTEM":"UTC","SEMIMAJOR_AXIS":"6917.879","NORAD_CAT_ID":"53971","ELEMENT_SET_NO":"999","MEAN_MOTION_DOT":"0.00013914","MEAN_MOTION":"15.08840451","MEAN_ANOMALY":"248.5025","PERIOD":"95.438","INCLINATION":"53.2165","REV_AT_EPOCH":"2206","GP_ID":"226917021","LAUNCH_DATE":"2022-10-05","RCS_SIZE":"LARGE","OBJECT_ID":"2022-125H","CENTER_NAME":"EARTH","PERIAPSIS":"538.889","REF_FRAME":"TEME","TLE_LINE2":"2 53971  53.2165 157.7495 0001236 111.6099 248.5025 15.08840451 22068","EPOCH":"2023-02-25T18:20:43.039392","COUNTRY_CODE":"US","TLE_LINE1":"1 53971U 22125H   23056.76438703  .00013914  00000-0  89059-3 0  9993","FILE":"3839003","CLASSIFICATION_TYPE":"U"},{"MEAN_ANOMALY":"258.9730","PERIOD":"95.438","INCLINATION":"53.2175","REV_AT_EPOCH":"2211","MEAN_ELEMENT_THEORY":"SGP4","TIME_SYSTEM":"UTC","DECAY_DATE":null,"ELEMENT_SET_NO":"999","SEMIMAJOR_AXIS":"6917.908","NORAD_CAT_ID":"53972","MEAN_MOTION":"15.08831038","MEAN_MOTION_DOT":"0.00000238","APOAPSIS":"540.512","BSTAR":"0.00003301800000","RA_OF_ASC_NODE":"153.4642","OBJECT_TYPE":"PAYLOAD","ECCENTRICITY":"0.00010690","EPHEMERIS_TYPE":"0","SITE":"AFWTR","MEAN_MOTION_DDOT":"0.0000000000000","ARG_OF_PERICENTER":"101.1382","OBJECT_NAME":"STARLINK-5157","CLASSIFICATION_TYPE":"U","FILE":"3839003","COUNTRY_CODE":"US","EPOCH":"2023-02-25T15:35:52.322496","TLE_LINE1":"1 53972U 22125J   23056.64991114  .00000238  00000-0  33018-4 0  9991","REF_FRAME":"TEME","PERIAPSIS":"539.033","TLE_LINE2":"2 53972  53.2175 153.4642 0001069 101.1382 258.9730 15.08831038 22115","LAUNCH_DATE":"2022-10-05","GP_ID":"226915775","RCS_SIZE":"LARGE","OBJECT_ID":"2022-125J","CENTER_NAME":"EARTH"},{"CENTER_NAME":"EARTH","OBJECT_ID":"2022-125K","RCS_SIZE":"LARGE","GP_ID":"226916025","LAUNCH_DATE":"2022-10-05","TLE_LINE2":"2 53973  53.2158 157.7039 0001374 100.7854 259.3293 15.08842708 22061","PERIAPSIS":"538.787","REF_FRAME":"TEME","TLE_LINE1":"1 53973U 22125K   23056.75701667  .00018841  00000-0  11986-2 0  9993","EPOCH":"2023-02-25T18:10:06.240288","COUNTRY_CODE":"US","CLASSIFICATION_TYPE":"U","FILE":"3839003","OBJECT_NAME":"STARLINK-5156","ARG_OF_PERICENTER":"100.7854","MEAN_MOTION_DDOT":"0.0000000000000","SITE":"AFWTR","EPHEMERIS_TYPE":"0","ECCENTRICITY":"0.00013740","OBJECT_TYPE":"PAYLOAD","RA_OF_ASC_NODE":"157.7039","BSTAR":"0.00119860000000","APOAPSIS":"540.688","MEAN_MOTION_DOT":"0.00018841","MEAN_MOTION":"15.08842708","NORAD_CAT_ID":"53973","SEMIMAJOR_AXIS":"6917.872","ELEMENT_SET_NO":"999","DECAY_DATE":null,"TIME_SYSTEM":"UTC","MEAN_ELEMENT_THEORY":"SGP4","REV_AT_EPOCH":"2206","INCLINATION":"53.2158","PERIOD":"95.437","MEAN_ANOMALY":"259.3293"},{"TLE_LINE1":"1 53974U 22125L   23056.92442439  .00016336  00000-0  10422-2 0  9993","COUNTRY_CODE":"US","EPOCH":"2023-02-25T22:11:10.267296","CLASSIFICATION_TYPE":"U","FILE":"3839003","OBJECT_ID":"2022-125L","CENTER_NAME":"EARTH","LAUNCH_DATE":"2022-10-05","GP_ID":"226916774","RCS_SIZE":"LARGE","TLE_LINE2":"2 53974  53.2185 136.6722 0001154  81.4473 278.6650 15.08836475 22374","REF_FRAME":"TEME","PERIAPSIS":"538.958","ELEMENT_SET_NO":"999","SEMIMAJOR_AXIS":"6917.891","NORAD_CAT_ID":"53974","MEAN_MOTION":"15.08836475","MEAN_MOTION_DOT":"0.00016336","MEAN_ELEMENT_THEORY":"SGP4","DECAY_DATE":null,"TIME_SYSTEM":"UTC","INCLINATION":"53.2185","REV_AT_EPOCH":"2237","MEAN_ANOMALY":"278.6650","PERIOD":"95.438","SITE":"AFWTR","MEAN_MOTION_DDOT":"0.0000000000000","ARG_OF_PERICENTER":"81.4473","OBJECT_NAME":"STARLINK-5159","BSTAR":"0.00104220000000","OBJECT_TYPE":"PAYLOAD","RA_OF_ASC_NODE":"136.6722","ECCENTRICITY":"0.00011540","EPHEMERIS_TYPE":"0","APOAPSIS":"540.554"},{"FILE":"3839003","CLASSIFICATION_TYPE":"U","TLE_LINE1":"1 53975U 22125M   23056.65179499  .00000540  00000-0  50005-4 0  9990","EPOCH":"2023-02-25T15:38:35.087136","COUNTRY_CODE":"US","TLE_LINE2":"2 53975  53.2180 153.4759 0001239  87.4945 272.6189 15.10470784 22114","PERIAPSIS":"533.909","REF_FRAME":"TEME","OBJECT_ID":"2022-125M","CENTER_NAME":"EARTH","GP_ID":"226916521","LAUNCH_DATE":"2022-10-05","RCS_SIZE":"LARGE","INCLINATION":"53.2180","REV_AT_EPOCH":"2211","MEAN_ANOMALY":"272.6189","PERIOD":"95.335","SEMIMAJOR_AXIS":"6912.900","NORAD_CAT_ID":"53975","ELEMENT_SET_NO":"999","MEAN_MOTION_DOT":"0.00000540","MEAN_MOTION":"15.10470784","MEAN_ELEMENT_THEORY":"SGP4","DECAY_DATE":null,"TIME_SYSTEM":"UTC","APOAPSIS":"535.622","ARG_OF_PERICENTER":"87.4945","MEAN_MOTION_DDOT":"0.0000000000000","SITE":"AFWTR","OBJECT_NAME":"STARLINK-5137","OBJECT_TYPE":"PAYLOAD","RA_OF_ASC_NODE":"153.4759","BSTAR":"0.00005000500000","ECCENTRICITY":"0.00012390","EPHEMERIS_TYPE":"0"},{"FILE":"3839003","CLASSIFICATION_TYPE":"U","TLE_LINE1":"1 53976U 22125N   23056.94011984  .00002508  00000-0  17561-3 0  9992","EPOCH":"2023-02-25T22:33:46.354176","COUNTRY_CODE":"US","TLE_LINE2":"2 53976  53.2169 136.7785 0001113  94.5019 265.6101 15.08839089 22375","PERIAPSIS":"538.978","REF_FRAME":"TEME","CENTER_NAME":"EARTH","OBJECT_ID":"2022-125N","RCS_SIZE":"LARGE","GP_ID":"226915275","LAUNCH_DATE":"2022-10-05","REV_AT_EPOCH":"2237","INCLINATION":"53.2169","PERIOD":"95.438","MEAN_ANOMALY":"265.6101","MEAN_MOTION_DOT":"0.00002508","MEAN_MOTION":"15.08839089","SEMIMAJOR_AXIS":"6917.883","NORAD_CAT_ID":"53976","ELEMENT_SET_NO":"999","TIME_SYSTEM":"UTC","DECAY_DATE":null,"MEAN_ELEMENT_THEORY":"SGP4","APOAPSIS":"540.518","OBJECT_NAME":"STARLINK-5134","ARG_OF_PERICENTER":"94.5019","MEAN_MOTION_DDOT":"0.0000000000000","SITE":"AFWTR","ECCENTRICITY":"0.00011130","EPHEMERIS_TYPE":"0","OBJECT_TYPE":"PAYLOAD","RA_OF_ASC_NODE":"136.7785","BSTAR":"0.00017561000000"},{"TLE_LINE2":"2 53977  53.2185 153.7320 0001016  99.1780 260.9327 15.08828052 22103","REF_FRAME":"TEME","PERIAPSIS":"539.079","CENTER_NAME":"EARTH","OBJECT_ID":"2022-125P","RCS_SIZE":"LARGE","LAUNCH_DATE":"2022-10-05","GP_ID":"226915525","CLASSIFICATION_TYPE":"U","FILE":"3839003","TLE_LINE1":"1 53977U 22125P   23056.57903171  .00000494  00000-0  49104-4 0  9991","COUNTRY_CODE":"US","EPOCH":"2023-02-25T13:53:48.339744","APOAPSIS":"540.485","OBJECT_NAME":"STARLINK-5094","SITE":"AFWTR","MEAN_MOTION_DDOT":"0.0000000000000","ARG_OF_PERICENTER":"99.1780","EPHEMERIS_TYPE":"0","ECCENTRICITY":"0.00010160","BSTAR":"0.00004910400000","OBJECT_TYPE":"PAYLOAD","RA_OF_ASC_NODE":"153.7320","REV_AT_EPOCH":"2210","INCLINATION":"53.2185","PERIOD":"95.438","MEAN_ANOMALY":"260.9327","MEAN_MOTION":"15.08828052","MEAN_MOTION_DOT":"0.00000494","ELEMENT_SET_NO":"999","SEMIMAJOR_AXIS":"6917.917","NORAD_CAT_ID":"53977","TIME_SYSTEM":"UTC","DECAY_DATE":null,"MEAN_ELEMENT_THEORY":"SGP4"},{"REV_AT_EPOCH":"2213","INCLINATION":"53.2151","PERIOD":"95.437","MEAN_ANOMALY":"257.5554","MEAN_MOTION_DOT":"0.00024517","MEAN_MOTION":"15.08843650","SEMIMAJOR_AXIS":"6917.869","NORAD_CAT_ID":"53978","ELEMENT_SET_NO":"999","DECAY_DATE":null,"TIME_SYSTEM":"UTC","MEAN_ELEMENT_THEORY":"SGP4","APOAPSIS":"540.310","OBJECT_NAME":"STARLINK-5148","ARG_OF_PERICENTER":"102.5531","MEAN_MOTION_DDOT":"0.0000000000000","SITE":"AFWTR","ECCENTRICITY":"0.00008330","EPHEMERIS_TYPE":"0","RA_OF_ASC_NODE":"152.7133","OBJECT_TYPE":"PAYLOAD","BSTAR":"0.00155300000000","FILE":"3839003","CLASSIFICATION_TYPE":"U","TLE_LINE1":"1 53978U 22125Q   23056.75659543  .00024517  00000-0  15530-2 0  9999","EPOCH":"2023-02-25T18:09:29.845152","COUNTRY_CODE":"US","TLE_LINE2":"2 53978  53.2151 152.7133 0000833 102.5531 257.5554 15.08843650 22135","PERIAPSIS":"539.158","REF_FRAME":"TEME","CENTER_NAME":"EARTH","OBJECT_ID":"2022-125Q","RCS_SIZE":"LARGE","GP_ID":"226916274","LAUNCH_DATE":"2022-10-05"},{"FILE":"3837722","CLASSIFICATION_TYPE":"U","TLE_LINE1":"1 53979U 22125R   23056.91667824  .00470845  00000-0  28858-1 0  9994","EPOCH":"2023-02-25T22:00:00.999936","COUNTRY_CODE":"US","TLE_LINE2":"2 53979  53.2158 152.0947 0001542 101.1580 356.6182 15.07693062 22223","PERIAPSIS":"542.186","REF_FRAME":"TEME","CENTER_NAME":"EARTH","OBJECT_ID":"2022-125R","RCS_SIZE":"LARGE","GP_ID":"226861882","LAUNCH_DATE":"2022-10-05","REV_AT_EPOCH":"2222","INCLINATION":"53.2158","PERIOD":"95.510","MEAN_ANOMALY":"356.6182","MEAN_MOTION_DOT":"0.00470845","MEAN_MOTION":"15.07693062","NORAD_CAT_ID":"53979","SEMIMAJOR_AXIS":"6921.388","ELEMENT_SET_NO":"999","DECAY_DATE":null,"TIME_SYSTEM":"UTC","MEAN_ELEMENT_THEORY":"SGP4","APOAPSIS":"544.321","OBJECT_NAME":"STARLINK-5123","ARG_OF_PERICENTER":"101.1580","MEAN_MOTION_DDOT":"0.0000000000000","SITE":"AFWTR","EPHEMERIS_TYPE":"0","ECCENTRICITY":"0.00015420","OBJECT_TYPE":"PAYLOAD","RA_OF_ASC_NODE":"152.0947","BSTAR":"0.02885800000000"},{"RCS_SIZE":"LARGE","GP_ID":"226915776","LAUNCH_DATE":"2022-10-05","CENTER_NAME":"EARTH","OBJECT_ID":"2022-125S","PERIAPSIS":"533.973","REF_FRAME":"TEME","TLE_LINE2":"2 53980  53.2140 151.8528 0001095  87.7119 135.2528 15.10482439  1307","EPOCH":"2023-02-25T22:00:00.999936","COUNTRY_CODE":"US","TLE_LINE1":"1 53980U 22125S   23056.91667824 -.00008246  00000-0 -47824-3 0  9996","FILE":"3839003","CLASSIFICATION_TYPE":"U","EPHEMERIS_TYPE":"0","ECCENTRICITY":"0.00010950","RA_OF_ASC_NODE":"151.8528","OBJECT_TYPE":"PAYLOAD","BSTAR":"-0.00047824000000","OBJECT_NAME":"STARLINK-5133","ARG_OF_PERICENTER":"87.7119","MEAN_MOTION_DDOT":"0.0000000000000","SITE":"AFWTR","APOAPSIS":"535.487","DECAY_DATE":null,"TIME_SYSTEM":"UTC","MEAN_ELEMENT_THEORY":"SGP4","MEAN_MOTION_DOT":"-0.00008246","MEAN_MOTION":"15.10482439","SEMIMAJOR_AXIS":"6912.865","NORAD_CAT_ID":"53980","ELEMENT_SET_NO":"999","PERIOD":"95.334","MEAN_ANOMALY":"135.2528","REV_AT_EPOCH":"130","INCLINATION":"53.2140"}];
